provider_id,given_name,family_name,npi_number,primary_taxonomy,practice_name,address_street,address_city,address_state,address_zip,place_id,phone_primary,phone_alt,email,license_number,license_state,license_status,last_validated_at,validated_by,overall_confidence,created_at,updated_at
a127e2de-a69e-4ffe-b192-4bf648092a62,Joseph,Moore,1673661511,207V00000X,Moore Obstetrics & Gynecology,8136 Second Ave,Anytown,ME,16537,ChIJ58520750269084114903,456-404-2626,,joseph.moore@outlook.com,B662832,ME,active,2025-07-02 04:48:28,validation_agent_002,0.76,2025-09-25 04:48:28,2025-09-25 04:48:28
10685197-4036-4bb7-82d1-3a80ca7c8460,James,Wilson,1788516578,207T00000X,Wilson Orthopedic Surgery,3904 Professional Pkwy,Anytown,OR,92025,ChIJ96857471838408726305,555-1234-567,,james.wilson@gmail.com,A754407,OR,active,2025-07-01 04:48:28,validation_agent_004,0.41,2025-09-25 04:48:28,2025-09-25 04:48:28
ca9f0443-8937-4bc3-a957-bc8105b9b374,Jennifer,Thompson,9850321840,207W00000X,Thompson Ophthalmology,6271 Elm St,Anytown,VA,47253,ChIJ45393427482223615626,459-744-9049,,@domain.com,C227094,VA,active,2025-06-19 04:48:28,validation_agent_002,0.68,2025-09-25 04:48:28,2025-09-25 04:48:28
b960a105-3f72-45a4-9c6b-86d290aa08cb,Donald,Jones,3234620495,208100000X,Jones Physical Medicine & Rehabilitation,2737 Oak Ave,Anytown,NE,16216,ChIJ24471662116892363388,823-546-1032,,donald.jones@yahoo.com,B573890,NE,expired,2025-04-16 04:48:28,validation_agent_008,0.4,2025-09-25 04:48:28,2025-09-25 04:48:28
43f141ed-a059-4330-a186-7fd8a311a1a4,Joseph,Torres,123456789,208100000X,Torres Physical Medicine & Rehabilitation,1231 Medical Center Dr,Anytown,HI,69572,ChIJ94663710360523981413,794-822-6977,434-403-6567,joseph.torres@gmail.com,C911307,HI,active,2025-05-09 04:48:28,validation_agent_005,0.47,2025-09-25 04:48:28,2025-09-25 04:48:28
a9636dc4-6d4b-415c-bd20-3fe9331aa5dc,Charles,Robinson,6757835260,207P00000X,Robinson Emergency Medicine,379 Elm St (MOVED),Joliet,IL,36247,ChIJ50787355554093424453,214-879-5758,,charles.robinson@gmail.com,C793603,IL,active,2024-11-09 04:48:28,validation_agent_005,0.7,2025-09-25 04:48:28,2025-09-25 04:48:28
597e715e-2c20-4ac3-999b-5f2dc2e28c38,Dr. David,Torres,8787443312,207K00000X,Torres Allergy & Immunology,7691 Park Ave,Anytown,ID,89622,ChIJ61074102681650173894,445-763-9404,,dr.david.torres@gmail.com,,ID,,2025-07-08 04:48:28,validation_agent_007,0.53,2025-09-25 04:48:28,2025-09-25 04:48:28
2504310a-5dba-429c-8af1-d18d0a1925d2,Sharon,Wilson,1566342890,208800000X,Wilson Urology,3462 First St,Roswell,GA,61594,ChIJ53680919047463073310,782-798-8037,,sharon.wilson@outlook.com,A236135,GA,active,2024-10-17 04:48:28,validation_agent_010,0.91,2025-09-25 04:48:28,2025-09-25 04:48:28
fff37f50-3d42-481a-970e-3a0ae76ef77a,Mark,Wilson,6416685647,207X00000X,Wilson Orthopedic Surgery,5725 Elm St,Hialeah,FL,96880,ChIJ32836669399289770941,572-253-9565,,mark.wilson@yahoo.com,A581046,FL,suspended,2025-05-02 04:48:28,validation_agent_009,0.25,2025-09-25 04:48:28,2025-09-25 04:48:28
009362af-e9af-4de8-b305-ffc98376f2c4,Michael,Sanchez,7749753736,207V00000X,Sanchez Obstetrics & Gynecology,5836 Medical Plaza,Anytown,AL,89687,ChIJ76101032497352633164,559-773-2139,,test@,A864900,AL,active,2025-07-14 04:48:28,validation_agent_007,0.58,2025-09-25 04:48:28,2025-09-25 04:48:28
645cae78-83d5-43e5-bccd-d1fe56170d7e,James,Allen,5314591121,208800000X,Allen Urology,9015 Oak Ave,Anytown,AL,49737,ChIJ90554264907426103853,692-605-5817,,james.allen@outlook.com,C178761,AL,active,2025-07-16 04:48:28,validation_agent_004,0.87,2025-09-25 04:48:28,2025-09-25 04:48:28
fea1e07e-6ca7-44a9-a79b-a31402bf2355,Andrew,Gonzalez,3010331140,208400000X,Gonzalez Radiology,6763 Broadway,Anytown,MN,94869,ChIJ82803920419874529269,555-123-456,,andrew.gonzalez@yahoo.com,C188035,MN,active,2025-07-30 04:48:28,validation_agent_003,0.62,2025-09-25 04:48:28,2025-09-25 04:48:28
02380dca-71ad-4dbb-8114-2def9d66ba82,David,Perez,7207628649,208100000X,Perez Physical Medicine & Rehabilitation,4665 Health Center Way,Anytown,WI,26095,ChIJ84582879981464513402,363-458-4804,,invalid-email,C328479,WI,active,2025-09-12 04:48:28,validation_agent_009,0.59,2025-09-25 04:48:28,2025-09-25 04:48:28
880c2f05-67c8-4564-9ee3-bf576509f6b8,Michelle,Moore,2011945245,207T00000X,Moore Orthopedic Surgery,3171 Medical Center Dr,Anytown,HI,41974,ChIJ89280850374878081059,536-611-2509,,michelle.moore@outlook.com,B973233,HI,expired,2025-08-14 04:48:28,validation_agent_007,0.46,2025-09-25 04:48:28,2025-09-25 04:48:28
8b357649-3b02-4a2d-87b6-4d74dc679b76,Anthony,Lopez,123456789,208200000X,Lopez Plastic Surgery,2033 Second Ave,Anytown,WI,46760,ChIJ87394899227160121970,474-637-1090,328-248-3029,anthony.lopez@yahoo.com,B232866,WI,active,2025-08-14 04:48:28,validation_agent_002,0.24,2025-09-25 04:48:28,2025-09-25 04:48:28
8f2ddba6-0ac5-4b05-9e55-a89488f4097f,Barbara,Sanchez,3537991401,208800000X,Sanchez Urology,6312 Oak Ave (MOVED),Anytown,AR,60181,ChIJ75531346327954459599,951-565-6720,,barbara.sanchez@yahoo.com,B832969,AR,active,2025-05-12 04:48:28,validation_agent_002,0.61,2025-09-25 04:48:28,2025-09-25 04:48:28
13570e82-919d-40c2-9546-f78aac9562a3,William,Hernandez,3791204363,208100000X,Hernandez Physical Medicine & Rehabilitation,4101 Medical Plaza,Tallahassee,FL,77183,ChIJ72528541719434569419,414-901-4987,903-704-4367,william.hernandez@outlook.com,,FL,,2025-03-20 04:48:28,validation_agent_007,0.47,2025-09-25 04:48:28,2025-09-25 04:48:28
119072b8-0b0a-418f-add1-e6ae767bb2a0,Jennifer,Lee,DUPLICATE_17,208500000X,Lee Surgery,7460 Park Ave,Anytown,SC,94731,ChIJ90312984618330797577,482-269-4928,256-452-2672,jennifer.lee@outlook.com,C750025,SC,active,2024-11-05 04:48:28,validation_agent_002,0.24,2025-09-25 04:48:28,2025-09-25 04:48:28
a4268c95-231a-4131-9752-c16a022b6afe,James,Lee,7724676207,207Q00000X,Lee Family Medicine,6173 Broadway,Anytown,WA,25205,ChIJ15340193847159250825,773-217-7949,,james.lee@outlook.com,A259492,WA,suspended,2025-06-20 04:48:28,validation_agent_002,0.35,2025-09-25 04:48:28,2025-09-25 04:48:28
195bae31-980c-4f9f-a3b8-08d9578e0b7b,Elizabeth,Rodriguez,8603769870,208200000X,Rodriguez Plastic Surgery,9129 Second Ave,Anytown,NE,39487,ChIJ26378272209372928647,940-561-2461,,invalid-email,A626968,NE,suspended,2025-07-15 04:48:28,validation_agent_001,0.24,2025-09-25 04:48:28,2025-09-25 04:48:28
c6a4a62a-c347-491e-86ac-0e3451c0794c,Paul,Brown,9977973487,207V00000X,Brown Obstetrics & Gynecology,9390 Health Center Way,Anytown,SC,18711,ChIJ12313235715514788389,983-367-6373,,paul.brown@outlook.com,C701698,SC,active,2025-03-04 04:48:28,validation_agent_002,0.99,2025-09-25 04:48:28,2025-09-25 04:48:28
419af9cd-e467-44ac-9311-423d536ae69f,Steven,Young,0187127441,208800000X,Young Urology,9665 Elm St,Anytown,CT,83287,ChIJ90395632350717725456,555-1234-567,,steven.young@outlook.com,B741118,CT,active,2025-06-09 04:48:28,validation_agent_001,0.6,2025-09-25 04:48:28,2025-09-25 04:48:28
165b84f6-fb3c-49bd-8ccc-cc50e5a1b1b1,Sarah,Nguyen,2420929998,207R00000X,Nguyen Internal Medicine,1975 First St,Anytown,AK,57485,ChIJ25902218601490851690,774-477-4453,,test domain@domain.com,A504495,AK,active,2025-03-29 04:48:28,validation_agent_005,0.66,2025-09-25 04:48:28,2025-09-25 04:48:28
b7b8da4c-4871-4c9c-8b4a-a59378be5b13,Dr. David,Torres,4403815677,207T00000X,Torres Orthopedic Surgery,1481 Health Center Way,Anytown,HI,83932,ChIJ94420905039619634732,382-977-8610,,dr.david.torres@gmail.com,A959307,HI,expired,2025-01-03 04:48:28,validation_agent_006,0.55,2025-09-25 04:48:28,2025-09-25 04:48:28
ba33d732-47f3-4146-b91e-0ece9ec3fd1b,Donald,Smith,9999999999,208000000X,Smith Pediatrics,8929 Professional Pkwy,Anytown,MD,71840,ChIJ13094166422900053716,656-653-4851,,donald.smith@outlook.com,C967969,MD,active,2025-03-22 04:48:28,validation_agent_009,0.25,2025-09-25 04:48:28,2025-09-25 04:48:28
09df0698-59f3-462c-a35f-a16ecd5578a5,Daniel,Jones,6916828109,207W00000X,Jones Ophthalmology,4475 First St (MOVED),Anytown,NE,10835,ChIJ43945844201309721841,994-849-1365,,daniel.jones@yahoo.com,A980148,NE,active,2024-11-01 04:48:28,validation_agent_010,0.47,2025-09-25 04:48:28,2025-09-25 04:48:28
90fd66ca-21df-4d54-ba5f-6c587ebe7bf1,Matthew,Sanchez,9148699273,207Q00000X,Sanchez Family Medicine,560 Professional Pkwy,Anytown,NH,87972,ChIJ74528671067048642258,612-356-2350,682-988-9097,matthew.sanchez@outlook.com,,NH,,2025-02-16 04:48:28,validation_agent_007,0.41,2025-09-25 04:48:28,2025-09-25 04:48:28
ecc0f066-1a14-4879-b3e1-a8f6e9026046,Betty,King,DUPLICATE_27,207N00000X,King Dermatology,5045 Park Ave,Anytown,AZ,79439,ChIJ23872900713750937305,618-878-8613,,betty.king@gmail.com,C841814,AZ,active,2025-04-28 04:48:28,validation_agent_003,0.23,2025-09-25 04:48:28,2025-09-25 04:48:28
9ceb5022-e33e-4514-b611-778cdeaba578,Joshua,Clark,3996639327,208300000X,Clark Psychiatry,420 Pine St,Buffalo,NY,18648,ChIJ27759466539224061113,962-878-2445,,joshua.clark@gmail.com,C925364,NY,suspended,2025-03-31 04:48:28,validation_agent_008,0.39,2025-09-25 04:48:28,2025-09-25 04:48:28
dd5677ec-87dc-4083-8fdd-a10369367348,Joseph,Garcia,6877641661,207R00000X,Garcia Internal Medicine,3274 Health Center Way,Anytown,DE,20615,ChIJ87374196267248544081,457-982-2550,,test@,C725034,DE,active,2024-11-03 04:48:28,validation_agent_001,0.54,2025-09-25 04:48:28,2025-09-25 04:48:28
f42144c5-1b46-4065-a673-6e900af1b0a3,Steven,Nguyen,9538191857,207X00000X,Nguyen Orthopedic Surgery,6297 First St,Anytown,AL,65632,ChIJ70647674920913751893,398-940-1284,,steven.nguyen@gmail.com,A754650,AL,active,2025-01-27 04:48:28,validation_agent_004,0.84,2025-09-25 04:48:28,2025-09-25 04:48:28
77ab0d11-622b-48cb-adbe-857e896b53d9,Paul,Jackson,9280189663,207W00000X,Jackson Ophthalmology,5209 Medical Plaza,Anytown,LA,83684,ChIJ49879022613696731596,123-456-7890,686-499-1234,paul.jackson@yahoo.com,B545029,LA,active,2025-08-11 04:48:28,validation_agent_008,0.7,2025-09-25 04:48:28,2025-09-25 04:48:28
0c56dc8b-8a19-4687-87d8-d5805b8f25ed,Barbara,Ramirez,0189976154,207R00000X,Ramirez Internal Medicine,8894 Main St,Anytown,MT,74683,ChIJ64221140331390566517,815-383-7372,,test@,B202988,MT,active,2025-05-16 04:48:28,validation_agent_002,0.62,2025-09-25 04:48:28,2025-09-25 04:48:28
07b71e0d-05dc-42c2-a1d2-0b79f6c1a071,Ruth,Taylor,0778512823,207X00000X,Taylor Orthopedic Surgery,5159 Pine St,Anytown,NM,69711,ChIJ97994384803643158621,606-472-1338,,ruth.taylor@outlook.com,C720846,NM,expired,2025-01-29 04:48:28,validation_agent_002,0.46,2025-09-25 04:48:28,2025-09-25 04:48:28
b84d9d62-93f7-4677-80c5-a6a7f5900d1a,Matthew,Martinez,1111111111,208100000X,Martinez Physical Medicine & Rehabilitation,641 Main St,Rockford,IL,27134,ChIJ95580038492584082463,926-631-3252,,matthew.martinez@outlook.com,A714782,IL,active,2025-09-10 04:48:28,validation_agent_005,0.41,2025-09-25 04:48:28,2025-09-25 04:48:28
d4918837-1f76-4438-a9df-cf6c362bb854,Elizabeth,Nguyen,1987028121,208500000X,Nguyen Surgery,7848 Oak Ave (MOVED),Anytown,NE,39891,ChIJ30150857690207450529,395-383-4566,,elizabeth.nguyen@yahoo.com,B339385,NE,active,2024-10-16 04:48:28,validation_agent_003,0.44,2025-09-25 04:48:28,2025-09-25 04:48:28
db36dac7-62a1-4113-bf2b-898476c3767b,Donna,Lewis,2172357264,208500000X,Lewis Surgery,4544 Park Ave,Anytown,MD,56365,ChIJ71556351293716188990,473-699-8718,,donna.lewis@yahoo.com,,MD,,2025-05-04 04:48:28,validation_agent_005,0.44,2025-09-25 04:48:28,2025-09-25 04:48:28
9f2e04ad-d75d-4e15-8103-c9fe46f1b6d0,Nancy,Johnson,DUPLICATE_37,207K00000X,Johnson Allergy & Immunology,8927 Medical Plaza,Queens,NY,24258,ChIJ82013144474573874050,368-861-6504,,nancy.johnson@gmail.com,C954800,NY,active,2025-07-19 04:48:28,validation_agent_007,0.14,2025-09-25 04:48:28,2025-09-25 04:48:28
ceb5c685-67a4-4e66-ad5c-18b30ea8f238,Joshua,Allen,3069029839,207T00000X,Allen Orthopedic Surgery,437 First St,Anytown,DE,83097,ChIJ27703791329257423157,907-233-2682,,joshua.allen@gmail.com,C688762,DE,suspended,2024-11-06 04:48:28,validation_agent_005,0.2,2025-09-25 04:48:28,2025-09-25 04:48:28
1891c3c9-51d5-490f-9a6c-796d4c2dbb4a,Dr. Robert,Allen,3400001428,208600000X,Allen Thoracic Surgery,737 Healthcare Blvd,Lancaster,PA,17811,ChIJ95686634944768300641,761-326-4296,,test domain@domain.com,A504567,PA,expired,2025-09-06 04:48:28,validation_agent_009,0.53,2025-09-25 04:48:28,2025-09-25 04:48:28
d84a19d5-765a-4ffb-8421-8503a9d07b29,Linda,Johnson,5216682066,208200000X,Johnson Plastic Surgery,4126 Professional Pkwy,Anytown,RI,83846,ChIJ46645628302062203500,634-348-3785,,linda.johnson@yahoo.com,C973055,RI,active,2025-04-08 04:48:28,validation_agent_006,0.77,2025-09-25 04:48:28,2025-09-25 04:48:28
41d767bb-091e-439c-bf7b-145b3334bd10,Dr. Sarah,Moore,5679716751,207K00000X,Moore Allergy & Immunology,588 Medical Center Dr,Anytown,MA,68411,ChIJ56705880872219334117,555-000-0000,,dr.sarah.moore@gmail.com,A203176,MA,active,2025-04-15 04:48:28,validation_agent_006,0.63,2025-09-25 04:48:28,2025-09-25 04:48:28
eeffdf4c-8e4e-4adf-af0d-98aec74b383e,Steven,Miller,4837088881,207N00000X,Miller Dermatology,6520 Medical Plaza,Anytown,CO,71514,ChIJ56261834624299989281,667-471-7325,,test@domain,C972526,CO,active,2025-08-07 04:48:28,validation_agent_008,0.62,2025-09-25 04:48:28,2025-09-25 04:48:28
de16fa51-76ad-4e8b-9482-434cfde7edd7,Linda,Sanchez,1148958320,208200000X,Sanchez Plastic Surgery,1218 Pine St,Anytown,MN,44245,ChIJ22514431947701188256,528-349-5201,665-605-2273,linda.sanchez@outlook.com,B376627,MN,expired,2024-10-08 04:48:28,validation_agent_007,0.42,2025-09-25 04:48:28,2025-09-25 04:48:28
07572c11-3d15-4cde-9a24-3e0eddc04205,Charles,Lewis,123456789,208400000X,Lewis Radiology,1354 Medical Plaza,Dearborn,MI,37763,ChIJ17176741210026987961,790-493-6276,,charles.lewis@yahoo.com,A190519,MI,active,2025-01-02 04:48:28,validation_agent_005,0.34,2025-09-25 04:48:28,2025-09-25 04:48:28
009af19d-393a-4e6d-9db0-db55241674a6,Dr. David,Brown,0580302480,207V00000X,Brown Obstetrics & Gynecology,2869 Park Ave (MOVED),Anytown,MT,32336,ChIJ81428509997703285188,731-992-5113,682-717-2369,dr.david.brown@outlook.com,A725271,MT,active,2025-06-19 04:48:28,validation_agent_010,0.65,2025-09-25 04:48:28,2025-09-25 04:48:28
ce72c6f6-45f7-4e7a-9ce4-5d3549d25bf5,Lisa,Anderson,2412400163,207T00000X,Anderson Orthopedic Surgery,3247 First St,Anytown,ND,26301,ChIJ93223341425623525919,240-495-6653,,lisa.anderson@yahoo.com,,ND,,2025-09-16 04:48:28,validation_agent_010,0.47,2025-09-25 04:48:28,2025-09-25 04:48:28
5b856702-ec6a-417b-be8d-cf3cf7d77c95,Betty,Thomas,DUPLICATE_47,207Z00000X,Thomas Pathology,6947 Pine St,Anytown,MN,25954,ChIJ49559605136732374013,336-470-1988,730-756-7793,betty.thomas@yahoo.com,B140055,MN,active,2025-01-23 04:48:28,validation_agent_007,0.35,2025-09-25 04:48:28,2025-09-25 04:48:28
281369ce-d878-4afc-bfdf-b0a0e9a73ffb,Steven,Moore,7338235932,207N00000X,Moore Dermatology,1221 Professional Pkwy,Columbus,GA,85431,ChIJ33569647877373580996,916-271-9983,,steven.moore@yahoo.com,B344805,GA,suspended,2025-08-21 04:48:28,validation_agent_009,0.38,2025-09-25 04:48:28,2025-09-25 04:48:28
6b5b5510-90b6-495f-b539-0808f3906223,Dr. David,Smith,1888966303,207R00000X,Smith Internal Medicine,1936 Broadway,Anytown,SC,14248,ChIJ61757184351254980667,5551234567,770-640-3226,test@domain.com.,A474544,SC,active,2025-01-02 04:48:28,validation_agent_008,0.39,2025-09-25 04:48:28,2025-09-25 04:48:28
4428fa88-8ccd-490b-8e1b-998932674d49,Steven,Jackson,6414588668,207N00000X,Jackson Dermatology,4502 First St,Anytown,AL,50355,ChIJ76066726978698741819,270-617-5286,,steven.jackson@gmail.com,B688117,AL,active,2024-10-09 04:48:28,validation_agent_001,0.8,2025-09-25 04:48:28,2025-09-25 04:48:28
ec7f67f2-82b7-446e-9dd9-a6d2308f6d27,Michelle,White,7226288034,207V00000X,White Obstetrics & Gynecology,7029 Healthcare Blvd,Philadelphia,PA,52351,ChIJ93185461039912628469,5551234567,,michelle.white@outlook.com,A987058,PA,active,2025-08-10 04:48:28,validation_agent_008,0.45,2025-09-25 04:48:28,2025-09-25 04:48:28
296d8a3a-9653-42af-938e-a965c7dee58c,Thomas,Hernandez,8514705607,208800000X,Hernandez Urology,7169 Health Center Way,Augusta,GA,73133,ChIJ98000767478157057295,756-356-8746,765-421-5217,test domain@domain.com,B334608,GA,active,2024-09-28 04:48:28,validation_agent_005,0.64,2025-09-25 04:48:28,2025-09-25 04:48:28
8f9064e3-5078-46d0-9029-2ea933d8be20,Carol,Sanchez,3014295627,207V00000X,Sanchez Obstetrics & Gynecology,6227 Park Ave,Anytown,RI,57279,ChIJ98494085650198496543,860-929-7802,,carol.sanchez@gmail.com,C308194,RI,expired,2024-12-13 04:48:28,validation_agent_004,0.54,2025-09-25 04:48:28,2025-09-25 04:48:28
9c5380e1-67d3-4042-9521-6a88bd85daf7,Dr. Lisa,Rodriguez,0000000000,208000000X,Rodriguez Pediatrics,9755 Second Ave,Anytown,NJ,42194,ChIJ98661887525731368104,432-736-4744,979-491-4422,dr.lisa.rodriguez@outlook.com,C928762,NJ,active,2025-06-08 04:48:28,validation_agent_002,0.27,2025-09-25 04:48:28,2025-09-25 04:48:28
bc9f6bda-8cc6-4859-b0d7-bd0392b36bfa,Matthew,Lee,9350591069,207K00000X,Lee Allergy & Immunology,596 Medical Plaza (MOVED),Anytown,MN,28509,ChIJ16854116134033889619,899-996-5405,,matthew.lee@gmail.com,A102561,MN,active,2025-08-31 04:48:28,validation_agent_005,0.5,2025-09-25 04:48:28,2025-09-25 04:48:28
ed57464c-3934-4bf2-a7f6-a93519160df4,Mark,Jones,7678854888,208600000X,Jones Thoracic Surgery,6834 Pine St,Anytown,ND,63260,ChIJ75881775465841284754,934-351-8813,,mark.jones@outlook.com,,ND,,2025-09-18 04:48:28,validation_agent_005,0.39,2025-09-25 04:48:28,2025-09-25 04:48:28
bca7fd73-1064-42c2-9287-8ff6a82f832a,Matthew,Anderson,DUPLICATE_57,207R00000X,Anderson Internal Medicine,3151 Professional Pkwy,Anytown,OK,90352,ChIJ85966971360361045316,653-464-5391,840-342-6411,matthew.anderson@gmail.com,B937724,OK,active,2025-04-06 04:48:28,validation_agent_001,0.24,2025-09-25 04:48:28,2025-09-25 04:48:28
960ca7bc-0451-4ae5-8440-ad52c6f6df09,John,Hill,9017561319,207X00000X,Hill Orthopedic Surgery,3351 Medical Center Dr,Anytown,IN,51738,ChIJ39596167853073807353,549-592-8934,,john.hill@yahoo.com,A319060,IN,suspended,2025-01-07 04:48:28,validation_agent_009,0.43,2025-09-25 04:48:28,2025-09-25 04:48:28
0bbc7a94-c852-41b2-93cc-6309469ed581,Dr. Michael,Young,6182185221,208000000X,Young Pediatrics,5504 First St,Anytown,SC,18393,ChIJ34173160365212690968,776-779-9660,,test@domain,B208803,SC,expired,2024-12-01 04:48:28,validation_agent_001,0.51,2025-09-25 04:48:28,2025-09-25 04:48:28
e7d523e7-f1dc-4b1d-8966-a291d72e446a,William,Johnson,3245481961,208300000X,Johnson Psychiatry,5699 Oak Ave,Anytown,MS,84015,ChIJ53976759312286504544,950-399-3996,,william.johnson@yahoo.com,B199216,MS,active,2025-07-28 04:48:28,validation_agent_002,0.79,2025-09-25 04:48:28,2025-09-25 04:48:28
af3fb468-04c1-453f-bb5f-8d6543712005,Mary,Wilson,0331255653,207W00000X,Wilson Ophthalmology,9943 Professional Pkwy,Anytown,CO,40930,ChIJ71541571530131543747,555-000-0000,,mary.wilson@gmail.com,B723825,CO,active,2025-01-21 04:48:28,validation_agent_002,0.42,2025-09-25 04:48:28,2025-09-25 04:48:28
93ae8f54-4f43-4846-977d-8285f86ba580,Barbara,Thompson,8691944935,208100000X,Thompson Physical Medicine & Rehabilitation,3872 Professional Pkwy,St. Petersburg,FL,48636,ChIJ13582223349987533219,507-204-9929,,test@,C517616,FL,active,2025-06-16 04:48:28,validation_agent_005,0.62,2025-09-25 04:48:28,2025-09-25 04:48:28
02d3225d-b71c-431d-991c-ce6108f40616,Matthew,Garcia,8779332983,208800000X,Garcia Urology,6086 Professional Pkwy,Houston,TX,11623,ChIJ49114784794384141068,234-205-7251,555-686-9972,matthew.garcia@gmail.com,C992864,TX,expired,2025-04-20 04:48:28,validation_agent_004,0.34,2025-09-25 04:48:28,2025-09-25 04:48:28
ff05f94a-7270-4436-b8da-5c78bc3d052f,Dr. Lisa,Hernandez,123456789,207N00000X,Hernandez Dermatology,9814 Oak Ave,Anytown,NV,69081,ChIJ62903541732660329204,768-309-7095,646-661-1859,dr.lisa.hernandez@outlook.com,B359476,NV,active,2025-01-14 04:48:28,validation_agent_002,0.25,2025-09-25 04:48:28,2025-09-25 04:48:28
d7780992-a796-4872-8a9c-1a40d15361ed,Donald,King,5855740695,208500000X,King Surgery,3491 Park Ave (MOVED),Anytown,WI,97608,ChIJ56733806968552155393,360-729-6150,682-795-4782,donald.king@gmail.com,A446366,WI,active,2024-12-23 04:48:28,validation_agent_009,0.59,2025-09-25 04:48:28,2025-09-25 04:48:28
2cdd92c1-61ce-443b-a547-add75cfe1090,Jessica,Ramirez,0751281829,208600000X,Ramirez Thoracic Surgery,8986 Professional Pkwy,Anytown,HI,61927,ChIJ73749458634674726889,519-462-5862,928-475-9823,jessica.ramirez@gmail.com,,HI,,2025-09-23 04:48:28,validation_agent_004,0.58,2025-09-25 04:48:28,2025-09-25 04:48:28
26325293-f259-4027-84ed-6214b98502be,Ruth,Thompson,DUPLICATE_67,208000000X,Thompson Pediatrics,1431 Pine St,Anytown,ID,66973,ChIJ80190393736677758584,595-364-2937,750-768-7142,ruth.thompson@gmail.com,C761219,ID,active,2025-09-16 04:48:28,validation_agent_002,0.16,2025-09-25 04:48:28,2025-09-25 04:48:28
f0575fad-2784-4098-9f14-0abebf25647c,David,Thomas,8203074539,208400000X,Thomas Radiology,7070 Park Ave,Anytown,MD,14508,ChIJ10147075877922684797,755-517-1138,,david.thomas@outlook.com,B552592,MD,suspended,2025-08-29 04:48:28,validation_agent_010,0.38,2025-09-25 04:48:28,2025-09-25 04:48:28
fd24534e-fe6c-40c0-b194-b2909387e8fe,Jennifer,Jones,2031988562,208100000X,Jones Physical Medicine & Rehabilitation,1387 Medical Center Dr,Anytown,TN,95110,ChIJ38966569210775011803,643-505-7048,308-634-3348,@domain.com,A401408,TN,active,2025-01-13 04:48:28,validation_agent_008,0.59,2025-09-25 04:48:28,2025-09-25 04:48:28
a09ce44f-39fa-4629-a0f7-f2d070073931,Dr. David,White,4436336659,208500000X,White Surgery,5944 Elm St,Anytown,WY,38364,ChIJ60223374859130927313,316-348-7280,,dr.david.white@gmail.com,B764363,WY,active,2025-08-18 04:48:28,validation_agent_007,0.72,2025-09-25 04:48:28,2025-09-25 04:48:28
a5f83112-d8d2-49b6-8034-a7424855f9b7,Sharon,Johnson,1952164502,208200000X,Johnson Plastic Surgery,9739 Medical Plaza,Anytown,AR,72190,ChIJ35679651221269136116,999-999-9999,,sharon.johnson@yahoo.com,B869797,AR,active,2024-10-27 04:48:28,validation_agent_002,0.49,2025-09-25 04:48:28,2025-09-25 04:48:28
447ae765-393e-4afa-ba4e-b75ad5afd0ff,Helen,White,0728916964,207W00000X,White Ophthalmology,4702 First St,Dearborn,MI,75742,ChIJ18484774909420554159,767-979-8654,,test@domain.com.,A352122,MI,active,2025-02-07 04:48:28,validation_agent_004,0.64,2025-09-25 04:48:28,2025-09-25 04:48:28
c5fa6f26-ef03-4d9b-bdd8-d1f7ecfb9af6,Richard,White,9896161383,208200000X,White Plastic Surgery,5179 Broadway,Anytown,DE,88905,ChIJ96869297063677253600,553-705-8556,,richard.white@outlook.com,A482780,DE,expired,2024-10-13 04:48:28,validation_agent_002,0.34,2025-09-25 04:48:28,2025-09-25 04:48:28
e8bf9b25-5bc9-475c-8b2f-488d227c23af,Dr. Sarah,Lee,0000000000,208100000X,Lee Physical Medicine & Rehabilitation,7330 Broadway,Tampa,FL,18325,ChIJ89219001958238520751,579-679-4409,744-352-2455,dr.sarah.lee@outlook.com,A965883,FL,active,2025-05-12 04:48:28,validation_agent_001,0.44,2025-09-25 04:48:28,2025-09-25 04:48:28
d7d16336-28aa-47bc-b263-47bf39b61816,Jessica,Hernandez,6693914537,207V00000X,Hernandez Obstetrics & Gynecology,2955 Main St (MOVED),Anytown,IN,30400,ChIJ52342425744153930437,502-323-9476,384-608-8007,jessica.hernandez@yahoo.com,B718394,IN,active,2025-06-06 04:48:28,validation_agent_001,0.62,2025-09-25 04:48:28,2025-09-25 04:48:28
0c2d6795-3cf5-4282-836e-00758c889f2c,John,Sanchez,5072666241,208600000X,Sanchez Thoracic Surgery,3862 Medical Center Dr,Anytown,RI,73938,ChIJ47695427351788674627,693-984-3403,,john.sanchez@outlook.com,,RI,,2025-09-05 04:48:28,validation_agent_010,0.44,2025-09-25 04:48:28,2025-09-25 04:48:28
9c6f1ff1-7656-4c55-a5dc-a56922dfc153,Dr. Lisa,Jones,DUPLICATE_77,208800000X,Jones Urology,9843 Main St,Anytown,OR,81108,ChIJ56200259407905385253,648-345-1870,,dr.lisa.jones@outlook.com,B895422,OR,active,2024-10-09 04:48:28,validation_agent_003,0.25,2025-09-25 04:48:28,2025-09-25 04:48:28
0c5bc191-6a85-432b-81f7-3b282ebc50e0,John,Ramirez,3411670595,208800000X,Ramirez Urology,6677 Park Ave,Anytown,IA,56288,ChIJ90910775955171020294,508-972-9624,,john.ramirez@gmail.com,C458553,IA,suspended,2025-04-28 04:48:28,validation_agent_003,0.2,2025-09-25 04:48:28,2025-09-25 04:48:28
e7c30e8d-6515-4408-b84f-7603c5f1d333,Anthony,Martinez,5568090413,208800000X,Martinez Urology,5203 Oak Ave,Anytown,CO,97808,ChIJ14014054449453734444,555-123-456,,test@domain,A737506,CO,active,2025-06-23 04:48:28,validation_agent_006,0.6,2025-09-25 04:48:28,2025-09-25 04:48:28
c063a51d-814b-4da8-bd3f-e299ac938fa9,Barbara,Walker,0190374025,207K00000X,Walker Allergy & Immunology,389 Medical Plaza,Anytown,NJ,46884,ChIJ32277134371504233589,399-546-8064,,barbara.walker@outlook.com,B648962,NJ,active,2025-08-25 04:48:28,validation_agent_004,0.78,2025-09-25 04:48:28,2025-09-25 04:48:28
effc4dc3-0591-474a-9eb4-7807161dcf0b,Betty,White,4892085692,208400000X,White Radiology,337 Park Ave,Anytown,VA,92363,ChIJ51830842934095324325,555-000-0000,,betty.white@gmail.com,C887414,VA,active,2025-01-09 04:48:28,validation_agent_009,0.68,2025-09-25 04:48:28,2025-09-25 04:48:28
9980ff5f-9394-4bee-be04-77f8d334878f,Michael,Walker,3600120526,207T00000X,Walker Orthopedic Surgery,4334 Broadway,Anytown,WY,38355,ChIJ72008768596768496412,875-960-1960,,test@domain,A376864,WY,active,2025-08-05 04:48:28,validation_agent_007,0.68,2025-09-25 04:48:28,2025-09-25 04:48:28
058e9724-949d-4518-9927-bc7af3aab7f2,Carol,Moore,6008849690,208300000X,Moore Psychiatry,3882 Pine St,San Jose,CA,88988,ChIJ97552620709049323818,322-709-3034,,carol.moore@outlook.com,B291862,CA,expired,2025-05-26 04:48:28,validation_agent_010,0.49,2025-09-25 04:48:28,2025-09-25 04:48:28
f697dd9b-fbbb-4f10-893a-cb5d8868249d,Sandra,Nguyen,1111111111,208800000X,Nguyen Urology,934 Second Ave,Anytown,DE,20132,ChIJ59186586666972197203,739-218-9701,,sandra.nguyen@outlook.com,B325782,DE,active,2024-10-10 04:48:28,validation_agent_005,0.26,2025-09-25 04:48:28,2025-09-25 04:48:28
40e08aa8-295e-4d21-b74d-135b8cbda5c0,Dr. Lisa,Smith,4896881109,207U00000X,Smith Urology,3247 Pine St (MOVED),Anytown,AL,47236,ChIJ94387113848166002704,404-372-8397,790-960-5541,dr.lisa.smith@gmail.com,C886518,AL,active,2025-03-28 04:48:28,validation_agent_008,0.55,2025-09-25 04:48:28,2025-09-25 04:48:28
14a2ff81-4af2-4fa8-ae6b-3074b4132afa,Helen,Moore,0185229852,207K00000X,Moore Allergy & Immunology,1262 First St,Anytown,ID,41245,ChIJ53897858033546812048,554-866-7805,,helen.moore@outlook.com,,ID,,2025-05-30 04:48:28,validation_agent_001,0.5,2025-09-25 04:48:28,2025-09-25 04:48:28
42631de9-d26f-4ffb-9505-1272b6f532a7,Joseph,Ramirez,DUPLICATE_87,207Q00000X,Ramirez Family Medicine,9011 Health Center Way,Raleigh,NC,81347,ChIJ85587263096684910563,839-919-5779,404-944-5517,joseph.ramirez@yahoo.com,C137490,NC,active,2025-01-27 04:48:28,validation_agent_008,0.1,2025-09-25 04:48:28,2025-09-25 04:48:28
143952e5-e71d-4d9d-8be6-d4bfc02a68b2,Helen,Jackson,2875093519,207R00000X,Jackson Internal Medicine,9952 Park Ave,Orlando,FL,37872,ChIJ21569050751787789819,571-875-5964,534-470-3449,helen.jackson@yahoo.com,B696450,FL,suspended,2025-06-29 04:48:28,validation_agent_004,0.29,2025-09-25 04:48:28,2025-09-25 04:48:28
707c4d62-fb36-4f92-95a5-d28b8247f806,John,Thompson,9296365059,207Z00000X,Thompson Pathology,289 Elm St,Anytown,NM,78988,ChIJ63220775585101732461,555-1234-567,,john.thompson@gmail.com,B953191,NM,active,2025-08-12 04:48:28,validation_agent_006,0.34,2025-09-25 04:48:28,2025-09-25 04:48:28
700e85e1-561b-49c9-8319-aa75e36beba6,Joshua,Allen,2591648754,207V00000X,Allen Obstetrics & Gynecology,5600 Main St,Anytown,KY,69147,ChIJ10277478062068831874,388-251-5495,966-483-9094,joshua.allen@yahoo.com,C130571,KY,active,2024-12-04 04:48:28,validation_agent_010,0.9,2025-09-25 04:48:28,2025-09-25 04:48:28
bdd2f9f2-431d-4b62-a9ca-86a40128e060,Jennifer,Ramirez,0083509262,207N00000X,Ramirez Dermatology,7704 Main St,Anytown,OR,30902,ChIJ64048129203529113315,555-1234-567,,jennifer.ramirez@gmail.com,A495419,OR,active,2025-02-27 04:48:28,validation_agent_006,0.68,2025-09-25 04:48:28,2025-09-25 04:48:28
c0368238-33d1-4fde-bbcf-b88c3bb749b0,Paul,Walker,6600343953,207Y00000X,Walker Otolaryngology,5858 First St,Anytown,IA,63481,ChIJ97156766743332536829,958-224-6299,418-702-9909,test@,C327378,IA,active,2025-08-22 04:48:28,validation_agent_005,0.61,2025-09-25 04:48:28,2025-09-25 04:48:28
d780b890-289c-49ee-b39f-aeaa6422ce42,Richard,Lewis,1620698298,207X00000X,Lewis Orthopedic Surgery,9953 Medical Center Dr,Anytown,SC,16528,ChIJ37208119102134278032,883-997-2842,,richard.lewis@yahoo.com,A276688,SC,expired,2024-11-09 04:48:28,validation_agent_007,0.59,2025-09-25 04:48:28,2025-09-25 04:48:28
5024a64a-b3e4-4728-b379-be8943279e1d,Anthony,Harris,1111111111,208000000X,Harris Pediatrics,7713 Medical Plaza,Anytown,MS,54508,ChIJ85783273097474394169,538-340-9822,636-643-2678,anthony.harris@outlook.com,A479891,MS,active,2024-12-30 04:48:28,validation_agent_008,0.22,2025-09-25 04:48:28,2025-09-25 04:48:28
61feda24-bdb4-4116-bfdf-f23bf2947acc,Robert,King,4278686054,207W00000X,King Ophthalmology,8532 Oak Ave (MOVED),Austin,TX,96921,ChIJ86698561411116146797,485-354-6064,,robert.king@outlook.com,A362787,TX,active,2025-08-17 04:48:28,validation_agent_008,0.41,2025-09-25 04:48:28,2025-09-25 04:48:28
fa423855-0397-4c16-a5ea-ca2ad3319c14,Ruth,Lee,1277913358,208200000X,Lee Plastic Surgery,7895 First St,Anytown,ID,42358,ChIJ54294056965820996912,625-995-1512,992-840-3361,ruth.lee@yahoo.com,,ID,,2025-07-14 04:48:28,validation_agent_010,0.43,2025-09-25 04:48:28,2025-09-25 04:48:28
b7ea9f1b-1153-4b77-a95d-93a420d77fdc,Anthony,Sanchez,DUPLICATE_97,208300000X,Sanchez Psychiatry,6227 Second Ave,Sacramento,CA,89641,ChIJ40807257015496727253,357-385-7841,,anthony.sanchez@yahoo.com,C620014,CA,active,2025-06-07 04:48:28,validation_agent_006,0.22,2025-09-25 04:48:28,2025-09-25 04:48:28
5267c531-7053-43ae-8639-349a97e38568,Dr. David,Moore,0254992888,208000000X,Moore Pediatrics,9012 Park Ave,Anytown,KS,12244,ChIJ75900658135639039469,545-499-7787,,dr.david.moore@outlook.com,C965480,KS,suspended,2025-07-09 04:48:28,validation_agent_007,0.22,2025-09-25 04:48:28,2025-09-25 04:48:28
c00241b0-bb41-4982-bb2b-9a4c175e915d,David,Anderson,5927960579,207R00000X,Anderson Internal Medicine,308 Health Center Way,Anytown,ME,46196,ChIJ88017470799646402162,(555) 123-4567,,david.anderson@yahoo.com,A865425,ME,suspended,2025-04-04 04:48:28,validation_agent_004,0.26,2025-09-25 04:48:28,2025-09-25 04:48:28
58d5f9c6-518c-43ed-8fc2-bbfe0615aedc,Joshua,Young,1405311585,208200000X,Young Plastic Surgery,7844 Elm St,Anytown,MA,24873,ChIJ21266087347139247784,261-477-7858,,joshua.young@gmail.com,C344933,MA,active,2025-01-19 04:48:28,validation_agent_005,0.87,2025-09-25 04:48:28,2025-09-25 04:48:28
d0b9f625-2686-41ca-9eab-eb7b5c637e0a,Donald,Lopez,4790189265,207T00000X,Lopez Orthopedic Surgery,2003 Health Center Way,Anytown,AR,70031,ChIJ57622412714444566559,999-999-9999,,donald.lopez@yahoo.com,C678149,AR,active,2025-09-03 04:48:28,validation_agent_001,0.41,2025-09-25 04:48:28,2025-09-25 04:48:28
04f01512-2f55-4f20-9a35-832671375830,Dr. Robert,Thompson,0587093656,207Z00000X,Thompson Pathology,7583 Park Ave,Raleigh,NC,92246,ChIJ17505952442637526758,691-599-6987,,test@,C560709,NC,active,2025-01-10 04:48:28,validation_agent_008,0.53,2025-09-25 04:48:28,2025-09-25 04:48:28
12708dc7-dfcc-4cda-828f-c1ff1c44e594,Dr. Jennifer,Scott,5493554459,207Z00000X,Scott Pathology,2500 Oak Ave,Anytown,NM,99647,ChIJ92519240888609057716,624-371-9617,,dr.jennifer.scott@yahoo.com,A878919,NM,expired,2025-09-06 04:48:28,validation_agent_001,0.37,2025-09-25 04:48:28,2025-09-25 04:48:28
c7137754-9797-4bbf-918a-9fdf4d87b529,Andrew,Gonzalez,1111111111,208400000X,Gonzalez Radiology,6684 Elm St,Anytown,NE,37101,ChIJ72951272984699473229,432-902-2252,,andrew.gonzalez@gmail.com,B261466,NE,active,2025-06-07 04:48:28,validation_agent_008,0.34,2025-09-25 04:48:28,2025-09-25 04:48:28
b03a5322-e782-420a-a70e-c7e4988233bd,Dr. Jennifer,Wright,1704020146,207R00000X,Wright Internal Medicine,5758 Elm St (MOVED),Anytown,MO,44801,ChIJ88560731377396903520,757-473-5779,,dr.jennifer.wright@outlook.com,C271500,MO,active,2025-07-02 04:48:28,validation_agent_006,0.59,2025-09-25 04:48:28,2025-09-25 04:48:28
42b31974-9488-4739-aaa7-4019ac5dcff1,David,White,2657955215,207V00000X,White Obstetrics & Gynecology,5530 Medical Center Dr,Anytown,LA,47140,ChIJ39624270852448629097,499-867-7486,,david.white@outlook.com,,LA,,2025-03-07 04:48:28,validation_agent_005,0.49,2025-09-25 04:48:28,2025-09-25 04:48:28
7c3450f3-e71f-46e1-aaa0-6fdf811e7a35,Elizabeth,Perez,DUPLICATE_107,207T00000X,Perez Orthopedic Surgery,4041 Second Ave,Anytown,SC,20329,ChIJ12232627507355210979,945-711-9513,422-381-4800,elizabeth.perez@gmail.com,A503125,SC,active,2025-05-19 04:48:28,validation_agent_001,0.17,2025-09-25 04:48:28,2025-09-25 04:48:28
35597721-f923-4a1f-a26d-13616c65e31c,Patricia,Wright,6659774298,207R00000X,Wright Internal Medicine,4567 Professional Pkwy,Canton,OH,49859,ChIJ21886936951766793695,969-577-8098,211-835-7783,patricia.wright@yahoo.com,B467970,OH,suspended,2024-10-09 04:48:28,validation_agent_002,0.43,2025-09-25 04:48:28,2025-09-25 04:48:28
43a7c8d1-47b0-40a0-90e1-ab8c4ff61395,Karen,Clark,6398524866,208500000X,Clark Surgery,8346 Second Ave,Anytown,AZ,35087,ChIJ65793824676993902136,(555) 123-4567,,test..test@domain.com,A442305,AZ,expired,2024-12-12 04:48:28,validation_agent_008,0.59,2025-09-25 04:48:28,2025-09-25 04:48:28
b2b9ff38-9608-4e18-a2e9-a876c2c5dc8c,Matthew,Anderson,2737282424,207K00000X,Anderson Allergy & Immunology,6051 Healthcare Blvd,Anytown,MT,61524,ChIJ11280994513732988847,896-343-7218,,matthew.anderson@gmail.com,B777960,MT,active,2025-09-06 04:48:28,validation_agent_001,0.91,2025-09-25 04:48:28,2025-09-25 04:48:28
ccf24fdf-941c-435d-adf8-4bc04e5961bb,Steven,Smith,2803167638,207X00000X,Smith Orthopedic Surgery,6421 Pine St,Anytown,OR,34070,ChIJ56973062609011998285,555-1234-567,,steven.smith@yahoo.com,B935135,OR,active,2025-01-05 04:48:28,validation_agent_002,0.62,2025-09-25 04:48:28,2025-09-25 04:48:28
ae4d3b10-778a-47b9-924e-9216ea08ec7f,William,Smith,4996512925,208200000X,Smith Plastic Surgery,9537 First St,Anytown,UT,45369,ChIJ10103610324703266336,523-654-4855,,test@domain..com,A650908,UT,active,2025-03-15 04:48:28,validation_agent_008,0.76,2025-09-25 04:48:28,2025-09-25 04:48:28
36bf4146-f1a1-47a6-810e-6c190ae3ac04,Andrew,Gonzalez,8649431808,207R00000X,Gonzalez Internal Medicine,2153 Medical Center Dr,Anytown,VT,39958,ChIJ25766038547459295031,560-215-1271,,andrew.gonzalez@yahoo.com,A237115,VT,expired,2024-12-27 04:48:28,validation_agent_001,0.54,2025-09-25 04:48:28,2025-09-25 04:48:28
50e21e54-8810-4821-ab79-0b944b952c33,Donna,Wright,1111111111,207R00000X,Wright Internal Medicine,963 First St,Anytown,RI,15649,ChIJ91943887888747740523,976-379-7396,,donna.wright@gmail.com,C201702,RI,active,2024-11-28 04:48:28,validation_agent_009,0.43,2025-09-25 04:48:28,2025-09-25 04:48:28
d672b591-769f-4406-9375-5e7d1a1c5946,Dr. Lisa,Robinson,5659162084,207P00000X,Robinson Emergency Medicine,8050 Broadway (MOVED),Anytown,RI,92841,ChIJ81976933294217389262,634-691-9650,,dr.lisa.robinson@outlook.com,A990198,RI,active,2024-10-23 04:48:28,validation_agent_005,0.4,2025-09-25 04:48:28,2025-09-25 04:48:28
07db3def-1efb-4805-9167-4bcb48eb130c,Patricia,Garcia,8661241073,207Z00000X,Garcia Pathology,5876 Main St,Columbus,OH,11563,ChIJ34806056378922661611,738-934-7550,627-776-6618,patricia.garcia@gmail.com,,OH,,2025-08-24 04:48:28,validation_agent_009,0.48,2025-09-25 04:48:28,2025-09-25 04:48:28
ba59b1b2-b801-46ca-b29a-142ac5ecc072,Jessica,Garcia,DUPLICATE_117,208200000X,Garcia Plastic Surgery,9837 Pine St,Anytown,MT,42400,ChIJ82544166978708266090,929-938-4861,238-570-6312,jessica.garcia@gmail.com,C903327,MT,active,2024-10-06 04:48:28,validation_agent_002,0.16,2025-09-25 04:48:28,2025-09-25 04:48:28
2a44ead6-1c8d-46bb-b39e-29370635fb42,Lisa,Torres,0426026766,208300000X,Torres Psychiatry,1078 Pine St,Anytown,KY,36761,ChIJ23354665630314595934,429-381-1869,,lisa.torres@yahoo.com,A835911,KY,suspended,2024-10-23 04:48:28,validation_agent_005,0.36,2025-09-25 04:48:28,2025-09-25 04:48:28
e685d5de-20cd-4dc8-880e-f36b572906e7,Sharon,Martinez,7388799631,208600000X,Martinez Thoracic Surgery,9127 Broadway,Anytown,ID,94915,ChIJ44699058714642029858,555-000-0000,,invalid-email,B300352,ID,expired,2025-07-25 04:48:28,validation_agent_009,0.34,2025-09-25 04:48:28,2025-09-25 04:48:28
f2a2091c-c060-438c-b934-3522ef3e73b7,Robert,Torres,6719134865,207U00000X,Torres Urology,5932 Pine St,Anytown,KY,40336,ChIJ89360541526732093975,461-614-8023,,robert.torres@yahoo.com,A532746,KY,active,2025-06-12 04:48:28,validation_agent_004,0.79,2025-09-25 04:48:28,2025-09-25 04:48:28
79eec9d7-7ae3-44e5-bd80-72e7e6039b05,Patricia,Gonzalez,9707536790,208800000X,Gonzalez Urology,9853 Second Ave,Anytown,NH,73935,ChIJ57934252404470099452,555-123-456,,patricia.gonzalez@yahoo.com,A909376,NH,active,2025-05-19 04:48:28,validation_agent_004,0.57,2025-09-25 04:48:28,2025-09-25 04:48:28
df53b022-28b4-4c24-afaa-38b1a28e0172,Mark,Thompson,8669973294,207K00000X,Thompson Allergy & Immunology,1973 Pine St,Anytown,ND,30311,ChIJ35668514664823800204,800-210-9768,237-741-2273,test@domain,A218445,ND,active,2024-12-05 04:48:28,validation_agent_007,0.57,2025-09-25 04:48:28,2025-09-25 04:48:28
e719f6e4-2fae-452e-bfb6-2cd22f8a35b7,Linda,Jackson,3197614615,208500000X,Jackson Surgery,628 Broadway,Durham,NC,11964,ChIJ12207856497078216201,968-881-7506,,linda.jackson@yahoo.com,A477490,NC,expired,2025-02-14 04:48:28,validation_agent_004,0.34,2025-09-25 04:48:28,2025-09-25 04:48:28
5765a159-b448-4941-804f-af9eac4c6fda,Susan,Torres,123456789,207U00000X,Torres Urology,4518 Professional Pkwy,Raleigh,NC,99413,ChIJ82871883409695032693,976-757-9469,,susan.torres@gmail.com,C550869,NC,active,2025-06-30 04:48:28,validation_agent_005,0.44,2025-09-25 04:48:28,2025-09-25 04:48:28
82e470fc-24fa-4cde-971b-b4d6306d3e21,Dr. Jennifer,Perez,6976904173,207R00000X,Perez Internal Medicine,5624 Oak Ave (MOVED),Reading,PA,36989,ChIJ31798422401813403749,236-800-9664,,dr.jennifer.perez@gmail.com,B741008,PA,active,2025-07-08 04:48:28,validation_agent_004,0.56,2025-09-25 04:48:28,2025-09-25 04:48:28
87bdb1a4-7426-4a8f-9a9a-6932a99d3e9e,Barbara,Robinson,2449226416,208300000X,Robinson Psychiatry,6184 First St,Anytown,CT,14547,ChIJ76284950959314245912,652-827-6547,,barbara.robinson@yahoo.com,,CT,,2025-06-01 04:48:28,validation_agent_006,0.5,2025-09-25 04:48:28,2025-09-25 04:48:28
9784397c-5df9-4f2f-8977-70a8765fff3d,Robert,Robinson,DUPLICATE_127,207N00000X,Robinson Dermatology,823 Professional Pkwy,Anytown,NJ,84227,ChIJ57955878998613570177,747-505-8778,,robert.robinson@gmail.com,C959928,NJ,active,2024-11-26 04:48:28,validation_agent_004,0.15,2025-09-25 04:48:28,2025-09-25 04:48:28
5f18a7a8-4ef9-4f14-90d8-06649d44325d,Ruth,Ramirez,2990889729,208600000X,Ramirez Thoracic Surgery,4268 Medical Center Dr,Anytown,SD,85485,ChIJ99672599591915625427,949-634-9639,,ruth.ramirez@outlook.com,C237358,SD,suspended,2024-11-11 04:48:28,validation_agent_004,0.47,2025-09-25 04:48:28,2025-09-25 04:48:28
f72dabc5-f799-4264-88fe-bbd60617d494,Dr. Sarah,Clark,5383009596,207X00000X,Clark Orthopedic Surgery,291 Medical Plaza,Anytown,MS,50159,ChIJ18517507708457892273,882-880-2801,,test@,A952406,MS,suspended,2025-08-08 04:48:28,validation_agent_003,0.25,2025-09-25 04:48:28,2025-09-25 04:48:28
e2fe7b89-e637-4190-ba8a-01c3cd81a079,William,Jackson,0395089561,207K00000X,Jackson Allergy & Immunology,5254 Elm St,Raleigh,NC,26405,ChIJ31145082671046176188,494-523-7902,,william.jackson@yahoo.com,B147421,NC,active,2025-08-08 04:48:28,validation_agent_010,0.74,2025-09-25 04:48:28,2025-09-25 04:48:28
b92a9e75-f478-46cd-9ec5-9d5cfd46667f,Christopher,Brown,1657408442,207R00000X,Brown Internal Medicine,8208 Pine St,Anytown,VT,36397,ChIJ79601215370571373527,5551234567,306-401-3757,christopher.brown@outlook.com,A616821,VT,active,2025-07-21 04:48:28,validation_agent_003,0.55,2025-09-25 04:48:28,2025-09-25 04:48:28
69c1ec96-46d0-4444-a273-c8d0ca223d13,Dr. Jennifer,Garcia,5993164664,208100000X,Garcia Physical Medicine & Rehabilitation,6894 Second Ave,Anytown,NE,26516,ChIJ72509642217757064683,916-878-4781,,test@domain..com,A226954,NE,active,2025-06-04 04:48:28,validation_agent_002,0.51,2025-09-25 04:48:28,2025-09-25 04:48:28
1bc3e85c-b6dd-4c79-9212-4b685df864f4,Dr. Michael,Harris,5194675992,207Y00000X,Harris Otolaryngology,2913 Health Center Way,Springfield,IL,74219,ChIJ85978021484385034565,996-623-2718,,dr.michael.harris@yahoo.com,A835474,IL,expired,2025-02-22 04:48:28,validation_agent_010,0.34,2025-09-25 04:48:28,2025-09-25 04:48:28
3eb86ccc-dcc1-4929-9b5a-a76471739201,Dr. Jennifer,King,0000000000,207U00000X,King Urology,3081 First St,Hialeah,FL,79757,ChIJ29016832901343950515,597-565-2907,427-551-6540,dr.jennifer.king@outlook.com,B914225,FL,active,2025-02-12 04:48:28,validation_agent_008,0.3,2025-09-25 04:48:28,2025-09-25 04:48:28
6643e6d8-035e-4cc1-bfa5-d6ad9fa03e94,Robert,White,1231092161,207Z00000X,White Pathology,5971 Healthcare Blvd (MOVED),Anytown,NE,28785,ChIJ50528627800794612859,557-265-9695,,robert.white@yahoo.com,C436705,NE,active,2024-11-21 04:48:28,validation_agent_003,0.53,2025-09-25 04:48:28,2025-09-25 04:48:28
291c2f89-120e-40dc-9ad1-ee43a1912d75,Dr. David,Hill,5604425396,207T00000X,Hill Orthopedic Surgery,6915 Main St,Detroit,MI,48713,ChIJ50318897975189406915,770-575-8670,,dr.david.hill@gmail.com,,MI,,2025-06-10 04:48:28,validation_agent_004,0.39,2025-09-25 04:48:28,2025-09-25 04:48:28
11dc948a-aab3-48f6-ab49-569e828c54f9,Mark,Young,DUPLICATE_137,207P00000X,Young Emergency Medicine,8338 Broadway,Anytown,WY,18104,ChIJ46857905553119774459,468-367-8367,,mark.young@outlook.com,A635368,WY,active,2025-04-11 04:48:28,validation_agent_002,0.39,2025-09-25 04:48:28,2025-09-25 04:48:28
a2d0d1e1-b4b9-4d33-9110-eeb2b6ba65d8,Dr. David,Rodriguez,1095314206,208100000X,Rodriguez Physical Medicine & Rehabilitation,1300 Oak Ave,Anytown,MS,49680,ChIJ31497872469924475499,230-691-4320,,dr.david.rodriguez@gmail.com,B814664,MS,suspended,2025-02-22 04:48:28,validation_agent_008,0.38,2025-09-25 04:48:28,2025-09-25 04:48:28
09dcc7e4-2c66-4aff-a65f-f1e7f67f9f11,Robert,Garcia,4102412280,207Z00000X,Garcia Pathology,8101 Park Ave,Anytown,ID,46513,ChIJ81862331765688421160,743-404-7761,724-210-7265,robert.garcia@outlook.com,A891858,ID,expired,2025-01-16 04:48:28,validation_agent_005,0.43,2025-09-25 04:48:28,2025-09-25 04:48:28
3029fdda-9658-4bf0-8bd5-3b892e7a2599,Dr. Michael,Taylor,7184934783,207W00000X,Taylor Ophthalmology,2893 Broadway,Anytown,ND,44412,ChIJ93637857744569768936,834-825-3086,954-358-8009,dr.michael.taylor@gmail.com,B381947,ND,active,2025-04-21 04:48:28,validation_agent_003,0.75,2025-09-25 04:48:28,2025-09-25 04:48:28
0d445aed-c3ea-44ff-9f85-12a534d2f855,Jessica,Garcia,3954942943,207U00000X,Garcia Urology,1737 Health Center Way,Anytown,SD,70175,ChIJ50838822873422965680,999-999-9999,,jessica.garcia@yahoo.com,C385319,SD,active,2024-10-22 04:48:28,validation_agent_002,0.44,2025-09-25 04:48:28,2025-09-25 04:48:28
8ef030c4-c62e-4f35-8128-511129b217e1,Susan,Wilson,1761862263,207U00000X,Wilson Urology,2108 Healthcare Blvd,Anytown,MO,62710,ChIJ86910002587668569035,801-975-2183,,test@domain.com.,C838315,MO,active,2025-09-06 04:48:28,validation_agent_001,0.78,2025-09-25 04:48:28,2025-09-25 04:48:28
24cd0549-9575-4dc3-9560-831be723a4ab,Elizabeth,Scott,0781036334,207V00000X,Scott Obstetrics & Gynecology,7663 Professional Pkwy,Dayton,OH,26566,ChIJ53739644057236313015,898-602-6432,,elizabeth.scott@outlook.com,C146561,OH,expired,2024-09-26 04:48:28,validation_agent_002,0.54,2025-09-25 04:48:28,2025-09-25 04:48:28
2bd59605-987d-42dc-808c-bfa65a183407,Thomas,Williams,1111111111,207N00000X,Williams Dermatology,9276 Professional Pkwy,Anytown,VA,97973,ChIJ49069689322407794709,813-689-1433,,thomas.williams@gmail.com,A920726,VA,active,2025-03-25 04:48:28,validation_agent_001,0.45,2025-09-25 04:48:28,2025-09-25 04:48:28
6481a51e-182c-412b-a78d-d6a7b208bb23,Helen,Moore,3930867105,208300000X,Moore Psychiatry,5926 Park Ave (MOVED),Anytown,WY,28217,ChIJ98173277973051152574,817-852-6792,,helen.moore@yahoo.com,B371654,WY,active,2025-04-20 04:48:28,validation_agent_003,0.62,2025-09-25 04:48:28,2025-09-25 04:48:28
8ecc02fa-58a2-430c-b660-e0cb637153dc,Helen,Moore,2870348354,207P00000X,Moore Emergency Medicine,5175 Professional Pkwy,Anytown,MT,37385,ChIJ86411891647271445651,244-486-4626,,helen.moore@yahoo.com,,MT,,2024-10-07 04:48:28,validation_agent_007,0.59,2025-09-25 04:48:28,2025-09-25 04:48:28
a11d1343-6c04-4b52-b5b4-4333eccdbd60,Thomas,Rodriguez,DUPLICATE_147,207W00000X,Rodriguez Ophthalmology,5482 Broadway,Anytown,NH,85632,ChIJ13257051635163078052,946-436-2165,,thomas.rodriguez@outlook.com,A306729,NH,active,2025-08-24 04:48:28,validation_agent_005,0.31,2025-09-25 04:48:28,2025-09-25 04:48:28
a5059eb7-ac99-4fad-8856-2a096f42585e,Dr. Jennifer,Robinson,2086055653,207N00000X,Robinson Dermatology,8479 Pine St,Anytown,OR,40728,ChIJ78518356104551702586,445-846-4125,,dr.jennifer.robinson@yahoo.com,C868283,OR,suspended,2025-07-11 04:48:28,validation_agent_004,0.42,2025-09-25 04:48:28,2025-09-25 04:48:28
d01b8b26-4891-4cac-8d70-a5f01d0b398e,Joseph,Flores,9293087785,208800000X,Flores Urology,530 Pine St,Anytown,NH,14251,ChIJ74214563210462462946,446-939-3964,713-318-1613,test@domain,A610811,NH,expired,2024-10-16 04:48:28,validation_agent_004,0.58,2025-09-25 04:48:28,2025-09-25 04:48:28
6ae5920d-9f40-48fd-9457-262bd89585b0,Karen,Martinez,0712080520,207Q00000X,Martinez Family Medicine,420 Second Ave,Anytown,MS,91576,ChIJ93382925805380606249,691-935-7740,743-762-7981,karen.martinez@gmail.com,B228362,MS,active,2025-06-27 04:48:28,validation_agent_002,0.85,2025-09-25 04:48:28,2025-09-25 04:48:28
3375f164-b77e-4fe3-b289-5d083688ca81,Sarah,Lewis,9556254782,207T00000X,Lewis Orthopedic Surgery,6284 Medical Plaza,Joliet,IL,32927,ChIJ87870664973252829913,5551234567,,sarah.lewis@gmail.com,B240011,IL,active,2025-09-01 04:48:28,validation_agent_009,0.67,2025-09-25 04:48:28,2025-09-25 04:48:28
20faaf72-6884-450c-b57e-3097b2b4efc6,Joseph,Thomas,5133107809,207X00000X,Thomas Orthopedic Surgery,5862 Second Ave,Anytown,MN,96955,ChIJ18029501227719941928,725-409-8750,,test@,C202313,MN,active,2025-06-29 04:48:28,validation_agent_005,0.61,2025-09-25 04:48:28,2025-09-25 04:48:28
5d1d61b7-401a-4d3c-8c4c-35c5255d0c44,Jennifer,Martin,6586599562,208400000X,Martin Radiology,5679 Broadway,Anytown,OR,48937,ChIJ22278164989715457207,644-367-8303,910-319-1580,jennifer.martin@outlook.com,A583644,OR,expired,2025-05-16 04:48:28,validation_agent_003,0.59,2025-09-25 04:48:28,2025-09-25 04:48:28
d8a17dbf-a883-4ad9-83cb-fe515fad4480,Robert,Garcia,123456789,207T00000X,Garcia Orthopedic Surgery,2441 Medical Plaza,Anytown,CO,97183,ChIJ67956365523928932530,539-731-9609,936-447-9654,robert.garcia@yahoo.com,B718626,CO,active,2024-11-01 04:48:28,validation_agent_010,0.41,2025-09-25 04:48:28,2025-09-25 04:48:28
24281a66-54ca-4561-81cd-d01164117b41,Michael,Young,5547268574,207U00000X,Young Urology,171 Second Ave (MOVED),Anytown,CT,40117,ChIJ32140245614741857061,875-328-8994,,michael.young@gmail.com,B191708,CT,active,2025-03-16 04:48:28,validation_agent_006,0.5,2025-09-25 04:48:28,2025-09-25 04:48:28
19794928-6e70-4fd7-934a-d4c331899521,Sharon,Johnson,5392673832,207V00000X,Johnson Obstetrics & Gynecology,4389 Oak Ave,Anytown,RI,85003,ChIJ76628937960070562056,208-637-8582,,sharon.johnson@gmail.com,,RI,,2025-04-14 04:48:28,validation_agent_005,0.44,2025-09-25 04:48:28,2025-09-25 04:48:28
08c0ea5e-8f80-49e4-bbc0-9d76bd246efd,Helen,Rodriguez,DUPLICATE_157,207K00000X,Rodriguez Allergy & Immunology,7457 Medical Plaza,Anytown,NE,55510,ChIJ82201833134590408538,279-269-2253,,helen.rodriguez@outlook.com,A449321,NE,active,2025-07-15 04:48:28,validation_agent_003,0.32,2025-09-25 04:48:28,2025-09-25 04:48:28
3291583e-69e1-4bdc-a6a4-10d4fa1be0f3,Mary,Clark,3345456693,208000000X,Clark Pediatrics,3045 Healthcare Blvd,Anytown,ND,49729,ChIJ45837003165751925684,763-265-5102,815-772-7109,mary.clark@yahoo.com,C923067,ND,suspended,2025-07-06 04:48:28,validation_agent_005,0.42,2025-09-25 04:48:28,2025-09-25 04:48:28
e33b76cd-5127-45fa-8ee8-50e11765d7b2,Joshua,Williams,5523735106,208400000X,Williams Radiology,8968 Broadway,Anytown,KY,46617,ChIJ45819297395719049747,882-320-2753,542-523-7648,joshua.williams@gmail.com,B283357,KY,expired,2024-12-21 04:48:28,validation_agent_001,0.43,2025-09-25 04:48:28,2025-09-25 04:48:28
04a35d7c-6c1f-455b-a20c-50975ae72172,Christopher,Jackson,4248942690,208400000X,Jackson Radiology,2065 Elm St,Athens,GA,23939,ChIJ69916220706306696205,552-738-8216,,christopher.jackson@gmail.com,B874839,GA,active,2025-07-24 04:48:28,validation_agent_008,0.95,2025-09-25 04:48:28,2025-09-25 04:48:28
438e4b9f-70bf-4606-b9fd-078b0952a6fa,Ruth,Hill,1221564759,208400000X,Hill Radiology,2455 Broadway,Anytown,ID,48105,ChIJ48477636016004515301,123-456-7890,498-891-3138,ruth.hill@yahoo.com,C335351,ID,active,2024-09-26 04:48:28,validation_agent_004,0.69,2025-09-25 04:48:28,2025-09-25 04:48:28
83a5f095-46ab-46b0-b2d5-1543a3fd995f,Lisa,Thomas,6280811877,208800000X,Thomas Urology,5963 Park Ave,Anytown,UT,28332,ChIJ12123068983943577783,697-280-2342,750-606-5620,test@domain,C771809,UT,active,2024-10-25 04:48:28,validation_agent_006,0.74,2025-09-25 04:48:28,2025-09-25 04:48:28
493a6ceb-a735-4ab1-8cc4-2bc9eca38b77,Sandra,Davis,3469443848,207R00000X,Davis Internal Medicine,6016 Broadway,Anytown,NM,62858,ChIJ19930118883145404082,644-280-8373,,sandra.davis@gmail.com,B247151,NM,expired,2025-02-25 04:48:28,validation_agent_004,0.51,2025-09-25 04:48:28,2025-09-25 04:48:28
88caf0d0-9fea-4781-8e30-32f5817859c6,Dr. Robert,Nguyen,0000000000,207T00000X,Nguyen Orthopedic Surgery,4209 Second Ave,Reading,PA,49452,ChIJ60686687659159015801,231-432-5700,,dr.robert.nguyen@outlook.com,A421393,PA,active,2025-08-10 04:48:28,validation_agent_002,0.39,2025-09-25 04:48:28,2025-09-25 04:48:28
46decdef-16dd-4bfc-8fb6-5f416514cf07,Dr. David,Jackson,7303587397,207N00000X,Jackson Dermatology,9264 Pine St (MOVED),San Diego,CA,98657,ChIJ60144746668437152762,265-842-9987,,dr.david.jackson@gmail.com,C684586,CA,active,2025-08-18 04:48:28,validation_agent_001,0.52,2025-09-25 04:48:28,2025-09-25 04:48:28
bf1e0a41-6a15-42b7-82e7-120c2375f76a,Lisa,Rodriguez,7463346701,207Y00000X,Rodriguez Otolaryngology,4885 Professional Pkwy,Anytown,ND,32953,ChIJ68200958451107722087,558-855-5942,,lisa.rodriguez@gmail.com,,ND,,2024-10-14 04:48:28,validation_agent_005,0.58,2025-09-25 04:48:28,2025-09-25 04:48:28
92ef1e4f-38cf-42bc-ba92-406c715f486c,Thomas,King,DUPLICATE_167,207Z00000X,King Pathology,4724 First St,Fayetteville,NC,26233,ChIJ98838009728467645153,732-314-2533,,thomas.king@yahoo.com,A637014,NC,active,2024-11-10 04:48:28,validation_agent_010,0.33,2025-09-25 04:48:28,2025-09-25 04:48:28
386ad439-a9e6-44fd-9cfc-da3f9a872b07,Dr. David,King,2053680282,208300000X,King Psychiatry,116 Broadway,Anytown,MD,85739,ChIJ14515950829971950457,686-631-4037,,dr.david.king@gmail.com,B476956,MD,suspended,2025-09-21 04:48:28,validation_agent_003,0.36,2025-09-25 04:48:28,2025-09-25 04:48:28
5cc80e95-4031-445f-88b6-a62d25f6e594,Daniel,Thompson,1878704230,208800000X,Thompson Urology,8830 Second Ave,Ann Arbor,MI,17921,ChIJ82176578274055784956,000-000-0000,,invalid-email,C911832,MI,active,2025-01-26 04:48:28,validation_agent_004,0.21,2025-09-25 04:48:28,2025-09-25 04:48:28
d7d4cd73-a565-4ad2-9c3d-dfe69f3e70db,Steven,Martin,3238797162,207R00000X,Martin Internal Medicine,1991 First St,Anytown,MN,26435,ChIJ61991594223798900032,698-860-3587,,steven.martin@yahoo.com,A517105,MN,active,2025-08-01 04:48:28,validation_agent_009,0.83,2025-09-25 04:48:28,2025-09-25 04:48:28
63ed6cb5-fe7f-4260-98d3-35ffbaa8d5d2,Dr. Jennifer,Wilson,4278616889,207U00000X,Wilson Urology,9728 Oak Ave,Anytown,RI,71845,ChIJ64434629840436718280,(555) 123-4567,,dr.jennifer.wilson@gmail.com,A858099,RI,active,2025-01-14 04:48:28,validation_agent_010,0.48,2025-09-25 04:48:28,2025-09-25 04:48:28
d2b06c09-badd-4495-b419-8090a77fe54a,William,Thompson,8161918637,207U00000X,Thompson Urology,6882 Healthcare Blvd,Anytown,MO,54147,ChIJ82171903907106913023,763-609-3521,,test domain@domain.com,B683051,MO,active,2025-09-01 04:48:28,validation_agent_001,0.62,2025-09-25 04:48:28,2025-09-25 04:48:28
4349af21-fd30-4598-a195-e72d6f62e448,Sandra,Jackson,8085777781,207Z00000X,Jackson Pathology,6920 Medical Center Dr,Anytown,CT,81141,ChIJ40636583216284222508,371-813-5327,760-832-1997,sandra.jackson@gmail.com,A395661,CT,expired,2024-12-29 04:48:28,validation_agent_006,0.48,2025-09-25 04:48:28,2025-09-25 04:48:28
f7eb546c-b258-42e1-b578-0d3392b8af7c,Thomas,Wright,9999999999,207P00000X,Wright Emergency Medicine,1376 Elm St,Anytown,DE,36449,ChIJ33671419849658042196,838-846-1695,,thomas.wright@yahoo.com,B265855,DE,active,2025-07-17 04:48:28,validation_agent_002,0.33,2025-09-25 04:48:28,2025-09-25 04:48:28
f90f2c08-8e1b-4971-b793-faf261713654,Thomas,White,6790983289,207W00000X,White Ophthalmology,9458 Park Ave (MOVED),Erie,PA,19081,ChIJ21247561507039548106,632-597-3235,,thomas.white@yahoo.com,B492162,PA,active,2025-08-15 04:48:28,validation_agent_001,0.42,2025-09-25 04:48:28,2025-09-25 04:48:28
714e8452-6202-458f-988c-85ee1d55cab7,Jennifer,Taylor,4257149077,207Y00000X,Taylor Otolaryngology,455 Pine St,Anytown,OK,82174,ChIJ24456216146076878135,921-505-9671,,jennifer.taylor@gmail.com,,OK,,2025-07-23 04:48:28,validation_agent_003,0.38,2025-09-25 04:48:28,2025-09-25 04:48:28
c34837d1-f4a9-4d4f-ada3-0fe20a61cf00,Betty,Wright,DUPLICATE_177,207Q00000X,Wright Family Medicine,1080 Broadway,Greensboro,NC,96428,ChIJ57865267421290671692,947-751-7311,,betty.wright@yahoo.com,A528028,NC,active,2025-05-12 04:48:28,validation_agent_001,0.12,2025-09-25 04:48:28,2025-09-25 04:48:28
6267f474-b2a8-4402-93a1-4d65933b1ace,Donald,Martin,3336632289,207Y00000X,Martin Otolaryngology,7252 Health Center Way,Anytown,IA,66194,ChIJ61606041992283817250,336-435-9418,280-453-6541,donald.martin@gmail.com,B456033,IA,suspended,2025-08-09 04:48:28,validation_agent_007,0.46,2025-09-25 04:48:28,2025-09-25 04:48:28
a6ef0c91-1a70-442e-ab23-a05f50dbe482,Sharon,Ramirez,2752531422,207V00000X,Ramirez Obstetrics & Gynecology,9791 Health Center Way,Sacramento,CA,89017,ChIJ47811963283476612490,339-989-5767,331-586-7087,test@,C849756,CA,suspended,2025-03-18 04:48:28,validation_agent_010,0.31,2025-09-25 04:48:28,2025-09-25 04:48:28
1ccbe40b-5d31-4f64-962d-71b0f61b666a,Carol,Clark,6534338988,208500000X,Clark Surgery,1561 Health Center Way,Anytown,OK,58921,ChIJ50703094619011896006,317-536-9793,,carol.clark@yahoo.com,B464034,OK,active,2025-03-29 04:48:28,validation_agent_010,0.74,2025-09-25 04:48:28,2025-09-25 04:48:28
7a03a34a-015b-4c5e-b41a-b4eeb20ea6a5,James,Thompson,2552139388,208100000X,Thompson Physical Medicine & Rehabilitation,5917 First St,Brooklyn,NY,79775,ChIJ94247269244776133832,555-1234-567,,james.thompson@outlook.com,C929512,NY,active,2025-05-28 04:48:28,validation_agent_006,0.66,2025-09-25 04:48:28,2025-09-25 04:48:28
7dd5d507-d64a-4358-8d26-93a75c0c781c,Joseph,Johnson,9078600136,208300000X,Johnson Psychiatry,2454 Oak Ave,Anytown,RI,49399,ChIJ10000635701861096542,555-265-9066,,test@domain..com,C181932,RI,active,2025-03-13 04:48:28,validation_agent_001,0.69,2025-09-25 04:48:28,2025-09-25 04:48:28
06572531-aee3-47ba-8524-5628e6aa7ab3,John,Brown,3305287683,208400000X,Brown Radiology,5572 Professional Pkwy,Anytown,NH,61261,ChIJ90673659121127692493,733-844-5328,250-279-3432,john.brown@outlook.com,A666687,NH,expired,2025-08-08 04:48:28,validation_agent_007,0.36,2025-09-25 04:48:28,2025-09-25 04:48:28
792c80b3-99fe-4c21-b984-4b0479711fa4,Christopher,Davis,9999999999,208100000X,Davis Physical Medicine & Rehabilitation,5788 Elm St,Anytown,ID,26263,ChIJ67924343049066874569,626-399-7023,,christopher.davis@outlook.com,B756671,ID,active,2025-03-29 04:48:28,validation_agent_002,0.5,2025-09-25 04:48:28,2025-09-25 04:48:28
813ad02a-6c12-4cac-afe7-7db582a1ad8b,Thomas,Rodriguez,7216185690,208600000X,Rodriguez Thoracic Surgery,6596 Pine St (MOVED),Anytown,LA,62022,ChIJ23430643789735729326,501-399-3304,771-278-6844,thomas.rodriguez@yahoo.com,B733534,LA,active,2024-10-03 04:48:28,validation_agent_006,0.47,2025-09-25 04:48:28,2025-09-25 04:48:28
4601f03d-e5bc-4be4-948d-2d1be85f8c50,Helen,Robinson,0820916166,207T00000X,Robinson Orthopedic Surgery,2596 Medical Plaza,Anytown,VA,72879,ChIJ81084403813520261370,287-950-4042,,helen.robinson@outlook.com,,VA,,2025-04-16 04:48:28,validation_agent_001,0.55,2025-09-25 04:48:28,2025-09-25 04:48:28
d3dedff0-c684-47bc-9288-7e09952de251,Karen,Nguyen,DUPLICATE_187,207T00000X,Nguyen Orthopedic Surgery,7785 Park Ave,Wilmington,NC,28462,ChIJ86281568425266295766,357-844-5925,,karen.nguyen@yahoo.com,B106614,NC,active,2025-03-03 04:48:28,validation_agent_003,0.25,2025-09-25 04:48:28,2025-09-25 04:48:28
2aafdae8-7e1b-4c81-a389-163a0b60dacb,Lisa,Rodriguez,0266530676,207T00000X,Rodriguez Orthopedic Surgery,9919 Medical Center Dr,Anytown,WI,45039,ChIJ33426643249818670944,397-715-8057,,lisa.rodriguez@gmail.com,C803973,WI,suspended,2025-09-15 04:48:28,validation_agent_006,0.22,2025-09-25 04:48:28,2025-09-25 04:48:28
8c53a12f-9c18-4e5b-b31a-80301f80781d,Susan,Lewis,6543098408,208200000X,Lewis Plastic Surgery,5149 Pine St,Anytown,UT,29481,ChIJ83886884642608257117,965-726-8785,770-986-5512,test domain@domain.com,B403665,UT,suspended,2025-03-29 04:48:28,validation_agent_008,0.21,2025-09-25 04:48:28,2025-09-25 04:48:28
87c6c537-16f1-4099-b0a2-749a1f46d605,Jessica,Walker,9647261708,207T00000X,Walker Orthopedic Surgery,407 Second Ave,Anytown,NJ,21626,ChIJ46902948951118542680,513-733-1610,,jessica.walker@outlook.com,A746925,NJ,active,2025-06-26 04:48:28,validation_agent_008,0.96,2025-09-25 04:48:28,2025-09-25 04:48:28
315dea6d-e421-4b7c-ba9b-482351178a30,Michelle,Clark,2230482892,207R00000X,Clark Internal Medicine,7250 Professional Pkwy,Chicago,IL,87452,ChIJ45870391837855352440,555-123-456,393-732-1467,michelle.clark@gmail.com,B991635,IL,active,2025-09-11 04:48:28,validation_agent_005,0.57,2025-09-25 04:48:28,2025-09-25 04:48:28
256e0301-77b7-4e2a-a832-82f8fe8219dd,Mary,Smith,7705188047,207T00000X,Smith Orthopedic Surgery,3483 First St,Anytown,MS,58930,ChIJ18799704238803110503,733-429-3191,,test@domain.com.,B181310,MS,active,2025-03-08 04:48:28,validation_agent_003,0.5,2025-09-25 04:48:28,2025-09-25 04:48:28
3e760b11-d051-44cf-b169-c1b72610bcc2,Richard,Rodriguez,3041329210,208000000X,Rodriguez Pediatrics,6493 Professional Pkwy,Anytown,AZ,48165,ChIJ49165989508546809083,443-726-4425,,richard.rodriguez@yahoo.com,C909998,AZ,expired,2025-01-29 04:48:28,validation_agent_005,0.44,2025-09-25 04:48:28,2025-09-25 04:48:28
1af99cae-cc46-4a1d-8408-59645bbe476a,Michael,Allen,0000000000,207P00000X,Allen Emergency Medicine,3646 Second Ave,Anytown,MN,22702,ChIJ92489750227211702257,864-976-7449,,michael.allen@yahoo.com,A963695,MN,active,2025-07-04 04:48:28,validation_agent_003,0.42,2025-09-25 04:48:28,2025-09-25 04:48:28
de4bd32d-651e-4db6-a927-1a8372461331,Charles,Robinson,5258113183,207T00000X,Robinson Orthopedic Surgery,1487 Professional Pkwy (MOVED),Anytown,MT,49712,ChIJ51486339075984444425,376-280-4416,,charles.robinson@yahoo.com,B175713,MT,active,2025-03-20 04:48:28,validation_agent_010,0.69,2025-09-25 04:48:28,2025-09-25 04:48:28
816f1e87-6ba8-4dd7-9324-710b092e50e1,Dr. Michael,Jones,1174763269,207P00000X,Jones Emergency Medicine,2242 Medical Plaza,Anytown,KS,72530,ChIJ19553976039359512413,970-581-4758,213-944-3957,dr.michael.jones@yahoo.com,,KS,,2025-03-16 04:48:28,validation_agent_002,0.49,2025-09-25 04:48:28,2025-09-25 04:48:28
393db7d9-2300-4208-bf86-fa6c30bd7527,Susan,Anderson,DUPLICATE_197,207T00000X,Anderson Orthopedic Surgery,385 Broadway,Anytown,NE,30390,ChIJ22926394489587945353,701-759-5875,216-701-1462,susan.anderson@outlook.com,C127171,NE,active,2025-07-20 04:48:28,validation_agent_001,0.19,2025-09-25 04:48:28,2025-09-25 04:48:28
7b969e64-9332-4d35-82ed-ef403f4ad3c8,Sandra,Torres,9025356053,207N00000X,Torres Dermatology,8223 Medical Plaza,Anytown,UT,73795,ChIJ17481006968458143652,205-346-7237,,sandra.torres@yahoo.com,A737390,UT,suspended,2024-11-12 04:48:28,validation_agent_001,0.41,2025-09-25 04:48:28,2025-09-25 04:48:28
87e1ec7c-4a7c-48f8-baf1-de3b10990759,Dr. Robert,Clark,7959614115,207V00000X,Clark Obstetrics & Gynecology,7304 Pine St,Anytown,ID,51672,ChIJ84286626966594818171,555-000-0000,,test@domain.com.,A269139,ID,active,2025-02-26 04:48:28,validation_agent_001,0.49,2025-09-25 04:48:28,2025-09-25 04:48:28
